{
    "links": {
        "self": "http://www.neowsapp.com/rest/v1/neo/3663830?api_key=iIulBulltgU6a56xZRHN4H3l9WmuAYTsLGpBGhQ2"
    },
    "id": "3663830",
    "neo_reference_id": "3663830",
    "name": "(2014 EA25)",
    "designation": "2014 EA25",
    "nasa_jpl_url": "http://ssd.jpl.nasa.gov/sbdb.cgi?sstr=3663830",
    "absolute_magnitude_h": 25.2,
    "estimated_diameter": {
        "kilometers": {
            "estimated_diameter_min": 0.0242412481,
            "estimated_diameter_max": 0.0542050786
        },
        "meters": {
            "estimated_diameter_min": 24.2412481101,
            "estimated_diameter_max": 54.2050786336
        },
        "miles": {
            "estimated_diameter_min": 0.0150628086,
            "estimated_diameter_max": 0.0336814639
        },
        "feet": {
            "estimated_diameter_min": 79.5316564495,
            "estimated_diameter_max": 177.8381901842
        }
    },
    "is_potentially_hazardous_asteroid": false,
    "close_approach_data": [
        {
            "close_approach_date": "2014-03-13",
            "close_approach_date_full": "2014-Mar-13 06:06",
            "epoch_date_close_approach": 1394690760000,
            "relative_velocity": {
                "kilometers_per_second": "8.7077336987",
                "kilometers_per_hour": "31347.8413154786",
                "miles_per_hour": "19478.3295107206"
            },
            "miss_distance": {
                "astronomical": "0.0498160232",
                "lunar": "19.3784330248",
                "kilometers": "7452370.962590584",
                "miles": "4630688.5882706992"
            },
            "orbiting_body": "Earth"
        },
        {
            "close_approach_date": "2093-11-30",
            "close_approach_date_full": "2093-Nov-30 17:18",
            "epoch_date_close_approach": 3910439880000,
            "relative_velocity": {
                "kilometers_per_second": "11.0161264368",
                "kilometers_per_hour": "39658.0551724202",
                "miles_per_hour": "24641.9732264408"
            },
            "miss_distance": {
                "astronomical": "1.8199974551",
                "lunar": "707.9790100339",
                "kilometers": "272267742.688380637",
                "miles": "169179330.3567693106"
            },
            "orbiting_body": "Juptr"
        }
    ],
    "orbital_data": {
        "orbit_id": "7",
        "orbit_determination_date": "2017-04-06 08:42:05",
        "first_observation_date": "2014-03-11",
        "last_observation_date": "2014-03-15",
        "data_arc_in_days": 4,
        "observations_used": 48,
        "orbit_uncertainty": "8",
        "minimum_orbit_intersection": ".0481187",
        "jupiter_tisserand_invariant": "2.960",
        "epoch_osculation": "2456728.5",
        "eccentricity": ".6364250467245625",
        "semi_major_axis": "2.849949889155881",
        "inclination": "6.520189035119704",
        "ascending_node_longitude": "165.102079278767",
        "orbital_period": "1757.333801815408",
        "perihelion_distance": "1.036170397787188",
        "perihelion_argument": "15.94548976154079",
        "aphelion_distance": "4.663729380524575",
        "perihelion_time": "2456736.537185642301",
        "mean_anomaly": "358.3535360053739",
        "mean_motion": ".2048557875732563",
        "equinox": "J2000",
        "orbit_class": {
            "orbit_class_type": "AMO",
            "orbit_class_description": "Near-Earth asteroid orbits similar to that of 1221 Amor",
            "orbit_class_range": "1.017 AU < q (perihelion) < 1.3 AU"
        }
    },
    "is_sentry_object": false
}